[
  {
    "name": "(2023 BN2)",
    "diameter": 0.285785361,
    "distance": 45748404.34801252,
    "semi_major_axis": 0.8484,
    "eccentricity": 0.5637,
    "inclination": 35.87,
    "longitude_ascending_node": 45.7,
    "argument_of_perihelion": 336.48,
    "mean_anomaly": 300.23,
    "orbital_period": 285.43,
    "relative_velocity": 27.98,
    "is_potentially_hazardous": false,
    "close_approach_date": "2024-12-06",
    "absolute_magnitude": 23.22
  },
  {
    "name": "(2023 CA4)",
    "diameter": 0.2377059096,
    "distance": 18796419.96040524,
    "semi_major_axis": 1.4349,
    "eccentricity": 0.2267,
    "inclination": 17.95,
    "longitude_ascending_node": 109.78,
    "argument_of_perihelion": 295.61,
    "mean_anomaly": 153.97,
    "orbital_period": 627.8,
    "relative_velocity": 20.12,
    "is_potentially_hazardous": false,
    "close_approach_date": "2023-10-09",
    "absolute_magnitude": 23.62
  },
  {
    "name": "(2023 YO1)",
    "diameter": 0.0394493615,
    "distance": 27027747.959592614,
    "semi_major_axis": 1.8806,
    "eccentricity": 0.1612,
    "inclination": 20.98,
    "longitude_ascending_node": 145.58,
    "argument_of_perihelion": 91.2,
    "mean_anomaly": 200.08,
    "orbital_period": 942.0,
    "relative_velocity": 22.44,
    "is_potentially_hazardous": false,
    "close_approach_date": "2024-04-25",
    "absolute_magnitude": 27.52
  },
  {
    "name": "350751 (2002 AW)",
    "diameter": 0.4074177807,
    "distance": 54279221.49350233,
    "semi_major_axis": 1.6847,
    "eccentricity": 0.6745,
    "inclination": 33.48,
    "longitude_ascending_node": 210.83,
    "argument_of_perihelion": 265.26,
    "mean_anomaly": 317.54,
    "orbital_period": 798.69,
    "relative_velocity": 12.62,
    "is_potentially_hazardous": false,
    "close_approach_date": "2024-05-18",
    "absolute_magnitude": 22.45
  },
  {
    "name": "(2015 RD2)",
    "diameter": 0.8356799428,
    "distance": 25962468.947376966,
    "semi_major_axis": 1.937,
    "eccentricity": 0.635,
    "inclination": 5.87,
    "longitude_ascending_node": 33.23,
    "argument_of_perihelion": 299.95,
    "mean_anomaly": 282.68,
    "orbital_period": 984.69,
    "relative_velocity": 16.78,
    "is_potentially_hazardous": false,
    "close_approach_date": "2024-07-28",
    "absolute_magnitude": 20.89
  },
  {
    "name": "(2018 PN22)",
    "diameter": 0.0187948982,
    "distance": 11468354.984244809,
    "semi_major_axis": 1.3115,
    "eccentricity": 0.58,
    "inclination": 20.83,
    "longitude_ascending_node": 234.53,
    "argument_of_perihelion": 79.41,
    "mean_anomaly": 114.23,
    "orbital_period": 548.6,
    "relative_velocity": 16.11,
    "is_potentially_hazardous": false,
    "close_approach_date": "2024-10-23",
    "absolute_magnitude": 29.13
  },
  {
    "name": "(2019 AY3)",
    "diameter": 0.1023387195,
    "distance": 5225075.535362936,
    "semi_major_axis": 1.3131,
    "eccentricity": 0.1367,
    "inclination": 43.81,
    "longitude_ascending_node": 29.86,
    "argument_of_perihelion": 315.52,
    "mean_anomaly": 274.03,
    "orbital_period": 549.6,
    "relative_velocity": 22.89,
    "is_potentially_hazardous": false,
    "close_approach_date": "2024-10-29",
    "absolute_magnitude": 25.45
  },
  {
    "name": "(2020 HA10)",
    "diameter": 0.933340215,
    "distance": 42014479.6303498,
    "semi_major_axis": 1.7626,
    "eccentricity": 0.4799,
    "inclination": 37.31,
    "longitude_ascending_node": 126.51,
    "argument_of_perihelion": 31.22,
    "mean_anomaly": 91.49,
    "orbital_period": 854.71,
    "relative_velocity": 33.09,
    "is_potentially_hazardous": false,
    "close_approach_date": "2023-10-20",
    "absolute_magnitude": 20.65
  },
  {
    "name": "(2022 AO2)",
    "diameter": 0.0863057993,
    "distance": 32029066.43028682,
    "semi_major_axis": 0.9659,
    "eccentricity": 0.6987,
    "inclination": 41.8,
    "longitude_ascending_node": 18.98,
    "argument_of_perihelion": 130.25,
    "mean_anomaly": 32.16,
    "orbital_period": 346.75,
    "relative_velocity": 34.32,
    "is_potentially_hazardous": false,
    "close_approach_date": "2023-01-03",
    "absolute_magnitude": 25.82
  },
  {
    "name": "(2022 XW1)",
    "diameter": 0.0549591464,
    "distance": 13627638.507437551,
    "semi_major_axis": 0.9143,
    "eccentricity": 0.3645,
    "inclination": 9.18,
    "longitude_ascending_node": 291.06,
    "argument_of_perihelion": 339.83,
    "mean_anomaly": 264.93,
    "orbital_period": 319.33,
    "relative_velocity": 11.84,
    "is_potentially_hazardous": false,
    "close_approach_date": "2023-05-30",
    "absolute_magnitude": 26.8
  },
  {
    "name": "(2022 XD2)",
    "diameter": 0.0636854144,
    "distance": 15255399.61669712,
    "semi_major_axis": 1.6966,
    "eccentricity": 0.2173,
    "inclination": 9.8,
    "longitude_ascending_node": 187.29,
    "argument_of_perihelion": 326.42,
    "mean_anomaly": 301.25,
    "orbital_period": 807.13,
    "relative_velocity": 19.07,
    "is_potentially_hazardous": false,
    "close_approach_date": "2024-06-01",
    "absolute_magnitude": 26.48
  },
  {
    "name": "(2022 YS4)",
    "diameter": 0.0424658654,
    "distance": 2300587.388084203,
    "semi_major_axis": 1.6161,
    "eccentricity": 0.2839,
    "inclination": 34.08,
    "longitude_ascending_node": 253.15,
    "argument_of_perihelion": 255.01,
    "mean_anomaly": 269.09,
    "orbital_period": 750.38,
    "relative_velocity": 22.91,
    "is_potentially_hazardous": false,
    "close_approach_date": "2024-09-30",
    "absolute_magnitude": 27.36
  },
  {
    "name": "(2023 AR1)",
    "diameter": 0.3451755128,
    "distance": 57688690.27242407,
    "semi_major_axis": 1.1423,
    "eccentricity": 0.4478,
    "inclination": 39.79,
    "longitude_ascending_node": 164.67,
    "argument_of_perihelion": 326.46,
    "mean_anomaly": 16.35,
    "orbital_period": 445.91,
    "relative_velocity": 8.39,
    "is_potentially_hazardous": false,
    "close_approach_date": "2023-01-22",
    "absolute_magnitude": 22.81
  },
  {
    "name": "306383 (1993 VD)",
    "diameter": 0.2992540101,
    "distance": 74512448.69112094,
    "semi_major_axis": 2.3784,
    "eccentricity": 0.5953,
    "inclination": 23.34,
    "longitude_ascending_node": 31.2,
    "argument_of_perihelion": 13.79,
    "mean_anomaly": 224.53,
    "orbital_period": 1339.77,
    "relative_velocity": 27.78,
    "is_potentially_hazardous": false,
    "close_approach_date": "2023-09-02",
    "absolute_magnitude": 23.12
  },
  {
    "name": "(2000 WM63)",
    "diameter": 0.4966380371,
    "distance": 50612018.80216001,
    "semi_major_axis": 1.4531,
    "eccentricity": 0.3137,
    "inclination": 0.1,
    "longitude_ascending_node": 47.9,
    "argument_of_perihelion": 207.85,
    "mean_anomaly": 81.06,
    "orbital_period": 639.81,
    "relative_velocity": 31.44,
    "is_potentially_hazardous": false,
    "close_approach_date": "2023-07-29",
    "absolute_magnitude": 22.02
  },
  {
    "name": "(2007 BT7)",
    "diameter": 0.5675968529,
    "distance": 41772395.465265445,
    "semi_major_axis": 2.4012,
    "eccentricity": 0.1116,
    "inclination": 35.61,
    "longitude_ascending_node": 260.11,
    "argument_of_perihelion": 22.98,
    "mean_anomaly": 334.1,
    "orbital_period": 1359.04,
    "relative_velocity": 26.93,
    "is_potentially_hazardous": false,
    "close_approach_date": "2023-07-04",
    "absolute_magnitude": 21.73
  },
  {
    "name": "(2014 QV296)",
    "diameter": 0.1047224945,
    "distance": 70519325.39317185,
    "semi_major_axis": 2.1915,
    "eccentricity": 0.4479,
    "inclination": 29.78,
    "longitude_ascending_node": 343.23,
    "argument_of_perihelion": 83.05,
    "mean_anomaly": 137.16,
    "orbital_period": 1184.99,
    "relative_velocity": 31.57,
    "is_potentially_hazardous": false,
    "close_approach_date": "2024-07-23",
    "absolute_magnitude": 25.4
  },
  {
    "name": "(2014 TC)",
    "diameter": 0.0342010925,
    "distance": 52439994.93880386,
    "semi_major_axis": 0.9106,
    "eccentricity": 0.3258,
    "inclination": 2.78,
    "longitude_ascending_node": 259.1,
    "argument_of_perihelion": 35.52,
    "mean_anomaly": 300.12,
    "orbital_period": 317.39,
    "relative_velocity": 12.59,
    "is_potentially_hazardous": false,
    "close_approach_date": "2024-08-12",
    "absolute_magnitude": 27.83
  },
  {
    "name": "(2016 AJ165)",
    "diameter": 0.0494356193,
    "distance": 39806600.1067552,
    "semi_major_axis": 1.0529,
    "eccentricity": 0.4968,
    "inclination": 27.52,
    "longitude_ascending_node": 8.37,
    "argument_of_perihelion": 114.05,
    "mean_anomaly": 140.23,
    "orbital_period": 394.59,
    "relative_velocity": 13.3,
    "is_potentially_hazardous": false,
    "close_approach_date": "2024-11-06",
    "absolute_magnitude": 27.03
  },
  {
    "name": "(2018 BP1)",
    "diameter": 0.0714562102,
    "distance": 40350515.941268735,
    "semi_major_axis": 0.9722,
    "eccentricity": 0.5904,
    "inclination": 28.26,
    "longitude_ascending_node": 333.35,
    "argument_of_perihelion": 266.77,
    "mean_anomaly": 154.71,
    "orbital_period": 350.1,
    "relative_velocity": 20.29,
    "is_potentially_hazardous": false,
    "close_approach_date": "2024-04-20",
    "absolute_magnitude": 26.23
  },
  {
    "name": "(2018 XE4)",
    "diameter": 0.0311917671,
    "distance": 8837356.181174712,
    "semi_major_axis": 1.1832,
    "eccentricity": 0.4741,
    "inclination": 25.93,
    "longitude_ascending_node": 319.98,
    "argument_of_perihelion": 250.85,
    "mean_anomaly": 257.87,
    "orbital_period": 470.06,
    "relative_velocity": 28.08,
    "is_potentially_hazardous": false,
    "close_approach_date": "2023-01-29",
    "absolute_magnitude": 28.03
  }
]